[{"OBJECT_NAME":"STARLINK-3049","OBJECT_ID":"2021-104AE","EPOCH":"2026-03-09T16:51:55.528128","MEAN_MOTION":15.08838945,"ECCENTRICITY":0.00013962,"INCLINATION":53.219,"RA_OF_ASC_NODE":209.0644,"ARG_OF_PERICENTER":93.1072,"MEAN_ANOMALY":267.0079,"EPHEMERIS_TYPE":0,"CLASSIFICATION_TYPE":"U","NORAD_CAT_ID":49436,"ELEMENT_SET_NO":999,"REV_AT_EPOCH":23891,"BSTAR":6.1863164e-5,"MEAN_MOTION_DOT":6.97e-6,"MEAN_MOTION_DDOT":0},{"OBJECT_NAME":"MINOTAUR 4 R\/B","OBJECT_ID":"2020-046E","EPOCH":"2026-03-09T23:21:28.488960","MEAN_MOTION":15.06543892,"ECCENTRICITY":0.00095926,"INCLINATION":53.9792,"RA_OF_ASC_NODE":306.0413,"ARG_OF_PERICENTER":86.078,"MEAN_ANOMALY":274.1318,"EPHEMERIS_TYPE":0,"CLASSIFICATION_TYPE":"U","NORAD_CAT_ID":45877,"ELEMENT_SET_NO":999,"REV_AT_EPOCH":23396,"BSTAR":0.00016618262,"MEAN_MOTION_DOT":2.204e-5,"MEAN_MOTION_DDOT":0}]
